TIANMU-1 08             
1 57400U 23101B   26066.00237819  .00000346  00000+0  14775-4 0  9993
2 57400  97.2717 118.7901 0006380 134.2174 225.9592 15.29204229146020
STARLINK-32189          
1 60317U 24133S   26068.90637793 -.00000961  00000+0 -20334-4 0  9999
2 60317  53.1591 296.0444 0001156  85.3535 274.7597 15.30197277 91760
